[{"OBJECT_NAME":"STARLINK-4659","OBJECT_ID":"2022-177X","EPOCH":"2026-03-09T22:00:01.999584","MEAN_MOTION":15.19541895,"ECCENTRICITY":0.00015968,"INCLINATION":42.9998,"RA_OF_ASC_NODE":131.1037,"ARG_OF_PERICENTER":257.6821,"MEAN_ANOMALY":10.3594,"EPHEMERIS_TYPE":0,"CLASSIFICATION_TYPE":"U","NORAD_CAT_ID":54841,"ELEMENT_SET_NO":999,"REV_AT_EPOCH":577,"BSTAR":0.049083509,"MEAN_MOTION_DOT":0.01155812,"MEAN_MOTION_DDOT":0},{"OBJECT_NAME":"JINJUSAT-1B","OBJECT_ID":"2025-052A","EPOCH":"2026-03-09T15:55:38.242848","MEAN_MOTION":15.30194857,"ECCENTRICITY":0.00055504,"INCLINATION":97.4113,"RA_OF_ASC_NODE":325.4613,"ARG_OF_PERICENTER":82.193,"MEAN_ANOMALY":277.9941,"EPHEMERIS_TYPE":0,"CLASSIFICATION_TYPE":"U","NORAD_CAT_ID":63210,"ELEMENT_SET_NO":999,"REV_AT_EPOCH":5486,"BSTAR":0.00068430401,"MEAN_MOTION_DOT":0.00019955,"MEAN_MOTION_DDOT":0}]
